IRIDIUM 106             
1 41917U 17003A   23232.35864313  .00000400  00000+0  13563-3 0  9992
2 41917  86.4032 159.7493 0002566  81.3978 278.7508 14.34217785345315
IRIDIUM 103             
1 41918U 17003B   23232.34595247  .00000391  00000+0  13272-3 0  9995
2 41918  86.4032 159.6577 0002456  91.9586 268.1891 14.34218709345346
IRIDIUM 109             
1 41919U 17003C   23233.32905206  .00000377  00000+0  12772-3 0  9993
2 41919  86.4033 159.2899 0002091  89.2904 270.8531 14.34219318345461
IRIDIUM 102             
1 41920U 17003D   23232.73919173  .00000780  00000+0  27139-3 0  9998
2 41920  86.4029 159.4815 0002314  84.9829 275.1631 14.34219938345449
IRIDIUM 105             
1 41921U 17003E   23232.77962385  .00000371  00000+0  12550-3 0  9993
2 41921  86.3990 127.9194 0002195  85.9358 274.2089 14.34207537347307
IRIDIUM 104             
1 41922U 17003F   23232.75188022  .00000383  00000+0  12978-3 0  9997
2 41922  86.4031 159.5035 0002416  84.9077 275.2395 14.34216708345436
IRIDIUM 114             
1 41923U 17003G   23232.33961094  .00000424  00000+0  14418-3 0  9997
2 41923  86.4030 159.6621 0002635  78.0708 282.0783 14.34216128345372
IRIDIUM 108             
1 41924U 17003H   23232.22836018  .00000351  00000+0  11837-3 0  9994
2 41924  86.3985 128.0938 0002368  81.7373 278.4091 14.34219657347210
